C/2020 K2 (PANSTARRS),e,91.0298,288.3247,67.3226,16698,0.0000005,0.99946841,0.0000,08/05.6967/2020,2000,g  6.5,4.0
# From MPEC 2020-N31
C/2020 K3 (Leonard),e,128.7154,27.9289,62.6998,210.4051,0.0003229,0.99242672,0.0000,05/30.1238/2020,2000,g 14.5,4.0
# From MPEC 2020-N31
C/2020 K4 (PANSTARRS),e,125.9022,264.1044,310.2456,44.36656,0.0033352,0.96005703,0.5289,08/12.0/2020,2000,g 16.5,4.0
# From MPEC 2020-N31
C/2020 K5 (PANSTARRS),h,06/05.5211/2021,67.1759,86.1516,249.6058,1.001767,1.534960,2000,11.0,4.0
# From MPEC 2020-N31
C/2020 K6 (Rankin),e,103.6295,291.5299,43.9364,8521,0.0000013,0.99930991,0.0000,09/12.6188/2021,2000,g  8.0,4.0
# From MPEC 2020-N31
C/2020 K7 (PANSTARRS),e,32.0412,286.0930,358.1721,107.4603,0.0008848,0.94061712,0.2545,08/12.0/2020,2000,g  8.0,4.0
# From MPEC 2020-N31
C/2020 K8 (Catalina-ATLAS),h,09/14.5184/2020,31.4135,181.5200,260.0573,1.000250,0.474609,2000,15.0,3.2
# From MPEC 2020-N31
P/2020 K9 (Lemmon-PANSTARRS),e,23.2363,166.1547,198.0141,4.187448,0.1150217,0.32313660,338.4427,08/12.0/2020,2000,g 12.5,4.0
# From MPEC 2020-N31
P/2020 M1 (PANSTARRS),e,8.6333,142.9473,67.8804,5.090186,0.0858230,0.47723671,20.1503,08/12.0/2020,2000,g 14.5,4.0
# From MPEC 2020-N31
C/2020 M3 (ATLAS),e,23.5068,71.4047,328.1480,30.18106,0.0059443,0.95788505,359.5573,08/12.0/2020,2000,g 14.5,4.0
# From MPEC 2020-K19
A/2020 M4,e,160.1256,348.6300,104.6205,5649,0.0000023,0.99894624,0.0000,11/23.5976/2020,2000,g 14.5,2.0
# From MPEC 2020-K19
C/2020 M5 (ATLAS),e,93.2226,352.0982,126.3372,5894,0.0000022,0.99949025,0.0000,08/19.9087/2021,2000,g  9.0,4.0
# From MPEC 2020-K19
C/2020 N1 (PANSTARRS),h,03/12.2127/2021,29.7038,279.9828,186.7787,1.000527,1.320437,2000,12.5,4.0
# From MPEC 2020-K19
C/2020 N2 (ATLAS),e,161.0361,257.0569,331.1662,127.4039,0.0006854,0.98591661,0.0000,08/23.6237/2020,2000,g 16.0,3.2
# From MPEC 2020-K19
P/2020 O1 (Lemmon-PANSTARRS),e,5.2219,176.0012,104.6624,2.646471,0.2289303,0.12010569,23.0568,08/12.0/2020,2000,g 15.5,4.0
# From MPEC 2020-K19
C/2020 O2 (Amaral),e,71.8912,256.6302,9.3917,14169,0.0000006,0.99965386,0.0000,08/23.8793/2021,2000,g  8.0,3.2
# From MPEC 2020-K19
P/2020 O3 (PANSTARRS),e,8.4440,266.9177,77.6826,4.668056,0.0977237,0.10571745,346.3038,08/12.0/2020,2000,g 12.0,4.0
# From  98, 1083
1P/Halley,e,162.2986,58.3313,111.2704,17.87100,0.0130461,0.96616992,164.6552,08/12.0/2020,2000,g  4.0,6.0
# From MPC118097
2P/Encke,e,11.7646,334.5511,186.5637,2.215311,0.2989180,0.84800147,14.0954,08/12.0/2020,2000,g 11.5,6.0
# From MPEC 2015-A10
4P/Faye,e,8.0080,193.1283,206.8564,3.827962,0.1315990,0.57769303,308.2513,08/12.0/2020,2000,g  8.0,6.0
# From MPEC 2015-S97
6P/d'Arrest,e,19.5120,138.9341,178.0922,3.497811,0.1506640,0.61260058,299.4657,08/12.0/2020,2000,g  9.0,4.0
# From MPEC 2015-E14
7P/Pons-Winnecke,e,22.3641,93.3793,172.5760,3.414911,0.1561835,0.63853061,315.0049,08/12.0/2020,2000,g  9.0,4.0
# From MPC 75715
8P/Tuttle,e,54.9116,270.2046,207.4907,5.703412,0.0723606,0.82007241,332.4459,08/12.0/2020,2000,g  9.0,4.0
# From MPEC 2019-JE2
9P/Tempel,e,10.4717,68.7330,179.3183,3.147268,0.1765239,0.50946571,259.4133,08/12.0/2020,2000,g  9.0,4.0
# From MPC114607
10P/Tempel,e,12.0398,117.8101,195.5173,3.060659,0.1840694,0.53851163,318.7134,08/12.0/2020,2000,g  5.0,10.0
# From MPEC 2017-L52
11P/Tempel-Swift-LINEAR,e,14.4203,238.9186,167.9370,3.282960,0.1656936,0.57695550,342.4006,08/12.0/2020,2000,g  9.0,4.0
# From  27, 604
12P/Pons-Brooks,e,74.0804,255.7160,199.0394,17.09275,0.0139472,0.95429367,341.1978,08/12.0/2020,2000,g  5.0,6.0
# From  27, 604
13P/Olbers,e,44.6265,85.8541,64.5421,16.67700,0.0144719,0.92971511,339.4576,08/12.0/2020,2000,g  5.0,6.0
# From MPC100283
14P/Wolf,e,27.9032,202.0768,158.9802,4.259105,0.1121312,0.35666024,110.3193,08/12.0/2020,2000,g  5.5,12.0
# From MPC 92276
15P/Finlay,e,6.7977,13.7222,347.8361,3.504286,0.1502466,0.71697473,309.5820,08/12.0/2020,2000,g 12.0,4.0
# From MPC 92276
16P/Brooks,e,3.0108,138.8726,245.1390,3.659835,0.1407705,0.48685885,324.9417,08/12.0/2020,2000,g  7.5,10.0
# From MPC114607
17P/Holmes,e,19.0276,326.6255,24.4867,3.638491,0.1420110,0.42823027,332.7532,08/12.0/2020,2000,g 10.0,6.0
# From MPC 92984
19P/Borrelly,e,29.3981,74.4127,351.8145,3.605703,0.1439525,0.63840635,282.4752,08/12.0/2020,2000,g  4.5,10.0
# From MPC111773
21P/Giacobini-Zinner,e,32.0146,195.3635,172.8470,3.495995,0.1507814,0.71067718,105.7884,08/12.0/2020,2000,g  9.0,6.0
# From MPC 94283
22P/Kopff,e,4.7420,120.8372,162.9642,3.442800,0.1542895,0.54889866,270.0497,08/12.0/2020,2000,g  3.0,10.4
# From MPC 14747
23P/Brorsen-Metcalf,e,19.1346,312.4136,128.8244,16.95463,0.0141180,0.97102732,0.0000,08/11.3633/1989,2000,g 10.0,6.0
# From MPC110085
24P/Schaumasse,e,11.6594,79.3024,57.7773,4.058122,0.1205636,0.70864555,120.3929,08/12.0/2020,2000,g  6.5,14.0
# From MPC 94674
26P/Grigg-Skjellerup,e,22.4431,211.5389,2.1943,3.013953,0.1883646,0.64061475,128.1580,08/12.0/2020,2000,g 12.0,16.0
# From MPC 78188
27P/Crommelin,e,29.1362,250.5812,195.9918,9.189746,0.0353793,0.91797633,116.9906,08/12.0/2020,2000,g 12.0,8.0
# From MPEC 2020-N31
28P/Neujmin,e,14.3110,346.3419,347.4259,6.975242,0.0535014,0.77376962,348.6620,08/12.0/2020,2000,g  8.5,6.0
# From MPEC 2020-N31
29P/Schwassmann-Wachmann,e,9.3668,312.3752,48.3478,6.033744,0.0665003,0.04414682,34.2802,08/12.0/2020,2000,g  4.0,4.0
# From MPC110085
30P/Reinmuth,e,8.5412,118.9164,12.0426,3.699121,0.1385340,0.52601433,149.2714,08/12.0/2020,2000,g  9.5,6.0
# From MPC108597
31P/Schwassmann-Wachmann,e,4.5473,114.1146,18.2588,4.240999,0.1128501,0.19239311,45.5291,08/12.0/2020,2000,g  5.0,8.0
# From MPC 92276
32P/Comas Sola,e,9.9250,57.4409,53.4559,4.496678,0.1033633,0.55800098,219.9523,08/12.0/2020,2000,g  6.5,8.0
# From MPEC 2013-O31
33P/Daniel,e,22.3249,66.3518,20.6173,4.082785,0.1194729,0.45239991,174.3411,08/12.0/2020,2000,g 10.0,12.0
# From  15, 452
35P/Herschel-Rigollet,e,64.786,356.424,29.058,28.5673,0.006455,0.9735161,0.000,12/23.2840/2091,2000,g  9.0,4.0
# From MPC105240
36P/Whipple,e,9.9523,181.8622,200.7792,4.130875,0.1173927,0.26852449,8.4910,08/12.0/2020,2000,g  8.5,6.0
# From MPEC 2018-HA5
37P/Forbes,e,8.9574,314.5611,330.0874,3.459306,0.1531866,0.53410921,127.2528,08/12.0/2020,2000,g 10.5,4.8
# From MPEC 2018-S50
38P/Stephan-Oterma,e,18.3546,77.9919,359.5385,11.25320,0.0261090,0.85893421,16.7125,08/12.0/2020,2000,g  3.5,12.0
# From MPC115887
39P/Oterma,e,1.5612,299.2560,95.0844,7.405874,0.0489035,0.22397956,310.8607,08/12.0/2020,2000,g  7.0,6.0
# From MPC100283
40P/Vaisala,e,11.4697,133.7813,47.4621,4.950814,0.0894724,0.62993070,187.8025,08/12.0/2020,2000,g  5.5,12.0
# From MPC105240
41P/Tuttle-Giacobini-Kresak,e,9.2210,140.9948,62.2642,3.086142,0.1817943,0.66025380,221.4081,08/12.0/2020,2000,g 10.0,16.0
# From MPC 94283
42P/Neujmin,e,3.9894,150.1896,147.1757,4.872904,0.0916268,0.58546733,178.6755,08/12.0/2020,2000,g 13.0,6.0
# From MPC102956
43P/Wolf-Harrington,e,9.3847,244.4039,224.0560,4.307317,0.1102539,0.43852390,159.3290,08/12.0/2020,2000,g  8.0,6.0
# From MPEC 2020-HN5
44P/Reinmuth,e,5.8984,286.4818,58.1320,3.688688,0.1391221,0.42714537,273.8031,08/12.0/2020,2000,g  8.3,6.0
# From MPC103849
45P/Honda-Mrkos-Pajdusakova,e,4.3249,87.7023,327.9544,3.050181,0.1850187,0.81761836,244.9873,08/12.0/2020,2000,g 13.5,8.0
# From MPC114607
46P/Wirtanen,e,11.7438,82.1567,356.3630,3.091744,0.1813004,0.65832191,110.2803,08/12.0/2020,2000,g 14.0,6.0
# From NK 2718
47P/Ashbrook-Jackson,e,13.0349,356.9263,357.6036,4.125014,0.1176429,0.31796057,136.2821,08/12.0/2020,2000,g  9.0,4.0
# From MPEC 2015-M77
48P/Johnson,e,12.2082,110.1268,216.6192,3.500421,0.1504956,0.42736524,109.9378,08/12.0/2020,2000,g  9.0,4.0
# From MPEC 2015-M77
49P/Arend-Rigaux,e,19.0458,118.7973,332.9719,3.569930,0.1461216,0.59856567,110.9080,08/12.0/2020,2000,g  9.0,4.0
# From MPEC 2015-S97
50P/Arend,e,19.0981,355.1610,49.3374,4.089410,0.1191827,0.52859679,196.5763,08/12.0/2020,2000,g  9.5,6.0
# From NK 3013
51P-A/Harrington,e,5.4256,83.6724,269.2464,3.708160,0.1380277,0.54304322,252.2041,08/12.0/2020,2000,g 16.0,8.0
# From NK 3014
51P-A/Harrington,e,5.4249,83.6879,269.2071,3.709181,0.1379707,0.54311565,251.9477,08/12.0/2020,2000,g 10.0,8.0
# From NK 3014
51P-A/Harrington,e,5.4249,83.6879,269.2072,3.709163,0.1379717,0.54311255,251.9509,08/12.0/2020,2000,g 10.0,8.0
# From MPEC 2015-L08
51P-D/Harrington,e,5.4263,83.6779,269.1965,3.708250,0.1380227,0.54305743,252.1992,08/12.0/2020,2000,g 16.0,8.0
# From MPEC 2015-L08
51P-D/Harrington,e,5.4263,83.6768,269.1973,3.708237,0.1380234,0.54305800,252.2043,08/12.0/2020,2000,g 16.0,8.0
# From NK 3013
51P-D/Harrington,e,5.4256,83.6727,269.2461,3.708160,0.1380278,0.54304340,252.2043,08/12.0/2020,2000,g 16.0,8.0
# From NK 3013
51P-D/Harrington,e,5.4256,83.6727,269.2461,3.708160,0.1380277,0.54304354,252.2043,08/12.0/2020,2000,g 16.0,8.0
# From MPC 88330
52P/Harrington-Abell,e,10.2314,336.8382,139.5981,3.862448,0.1298405,0.53979292,305.5636,08/12.0/2020,2000,g 13.5,6.0
# From MPC100283
53P/Van Biesbroeck,e,6.6083,148.8306,134.4135,5.424915,0.0780036,0.55224631,121.9984,08/12.0/2020,2000,g  7.7,4.8
# From MPC 89011
54P/de Vico-Swift-NEAT,e,6.0619,358.8143,1.7631,3.792922,0.1334269,0.42550942,161.9815,08/12.0/2020,2000,g  9.0,4.0
# From MPC 31070
55P/Tempel-Tuttle,e,162.3860,235.4043,172.5347,10.34951,0.0296022,0.90661870,243.6417,08/12.0/2020,2000,g  9.0,4.0
# From MPC101100
56P/Slaughter-Burnham,e,8.1583,345.9836,44.0115,5.071623,0.0862946,0.50689869,128.1956,08/12.0/2020,2000,g  8.5,6.0
# From MPC 98565
57P/du Toit-Neujmin-Delporte,e,2.8504,188.7777,115.2316,3.446747,0.1540246,0.50078379,293.5506,08/12.0/2020,2000,g 12.5,6.0
# From MPEC 2020-HN5
58P/Jackson-Neujmin,e,13.1064,159.0818,200.4626,4.083429,0.1194446,0.66266018,9.1428,08/12.0/2020,2000,g  5.5,10.0
# From MPC111774
59P/Kearns-Kwee,e,9.3415,312.8341,127.6049,4.489036,0.1036274,0.47486128,72.0739,08/12.0/2020,2000,g  7.0,6.0
# From MPEC 2015-M77
60P/Tsuchinshan,e,3.6028,267.5889,216.7921,3.517906,0.1493749,0.53688198,91.0994,08/12.0/2020,2000,g  9.0,4.0
# From MPEC 2015-Q71
